{
  "type": "FeatureCollection",
  "features": [
    {
      "type": "Feature",
      "properties": {
        "norad_id": 37600,
        "name": "FENGYUN 1C DEB",
        "group": "fengyun-1c-debris",
        "lat": -73.55394324914995,
        "lon": -76.64480939016343,
        "alt_km": 1224.42575014452,
        "timestamp": "2025-12-04T10:51:50.394755+00:00",
        "meta_object_name": "FENGYUN 1C DEB",
        "meta_object_id": "1999-025EKU",
        "meta_epoch": "2025-12-02T03:47:53.898144",
        "meta_mean_motion": 13.82391905,
        "meta_eccentricity": 0.03579786,
        "meta_inclination": 98.9356,
        "meta_ra_of_asc_node": 133.381,
        "meta_arg_of_pericenter": 78.289,
        "meta_mean_anomaly": 285.8195,
        "meta_ephemeris_type": 0,
        "meta_classification_type": "U",
        "meta_norad_cat_id": 37600,
        "meta_element_set_no": 999,
        "meta_rev_at_epoch": 88341,
        "meta_bstar": 0.0036460247,
        "meta_mean_motion_dot": 6.409e-05,
        "meta_mean_motion_ddot": 0,
        "tle_line1": "1 37600U 99025EKU 25336.15826271  .00006409  00000+0  36460-2 0  9991",
        "tle_line2": "2 37600  98.9356 133.3810 0357978  78.2890 285.8195 13.82391905883413"
      },
      "geometry": {
        "type": "Point",
        "coordinates": [
          -76.64480939016343,
          -73.55394324914995
        ]
      }
    },
    {
      "type": "Feature",
      "properties": {
        "norad_id": 37683,
        "name": "FENGYUN 1C DEB",
        "group": "fengyun-1c-debris",
        "lat": -59.750986542821735,
        "lon": -85.99989490268464,
        "alt_km": 1533.226539973305,
        "timestamp": "2025-12-04T10:51:50.394765+00:00",
        "meta_object_name": "FENGYUN 1C DEB",
        "meta_object_id": "1999-025EKY",
        "meta_epoch": "2025-12-02T13:11:44.275200",
        "meta_mean_motion": 13.31856332,
        "meta_eccentricity": 0.0584424,
        "meta_inclination": 98.0017,
        "meta_ra_of_asc_node": 258.5506,
        "meta_arg_of_pericenter": 151.0621,
        "meta_mean_anomaly": 26.3812,
        "meta_ephemeris_type": 0,
        "meta_classification_type": "U",
        "meta_norad_cat_id": 37683,
        "meta_element_set_no": 999,
        "meta_rev_at_epoch": 29104,
        "meta_bstar": 0.00139877,
        "meta_mean_motion_dot": 1.732e-05,
        "meta_mean_motion_ddot": 0,
        "tle_line1": "1 37683U 99025EKY 25336.54981800  .00001732  00000+0  13988-2 0  9999",
        "tle_line2": "2 37683  98.0017 258.5506 0584424 151.0621  26.3812 13.31856332291041"
      },
      "geometry": {
        "type": "Point",
        "coordinates": [
          -85.99989490268464,
          -59.750986542821735
        ]
      }
    },
    {
      "type": "Feature",
      "properties": {
        "norad_id": 37686,
        "name": "FENGYUN 1C DEB",
        "group": "fengyun-1c-debris",
        "lat": -32.7466044225137,
        "lon": 171.9640233982881,
        "alt_km": 1388.0508276647097,
        "timestamp": "2025-12-04T10:51:50.394776+00:00",
        "meta_object_name": "FENGYUN 1C DEB",
        "meta_object_id": "1999-025ELB",
        "meta_epoch": "2025-12-02T07:33:22.437792",
        "meta_mean_motion": 13.35350269,
        "meta_eccentricity": 0.0396452,
        "meta_inclination": 99.0209,
        "meta_ra_of_asc_node": 355.9344,
        "meta_arg_of_pericenter": 68.1356,
        "meta_mean_anomaly": 310.8807,
        "meta_ephemeris_type": 0,
        "meta_classification_type": "U",
        "meta_norad_cat_id": 37686,
        "meta_element_set_no": 999,
        "meta_rev_at_epoch": 60488,
        "meta_bstar": 0.0007759,
        "meta_mean_motion_dot": 5.81e-06,
        "meta_mean_motion_ddot": 0,
        "tle_line1": "1 37686U 99025ELB 25336.31484303  .00000581  00000+0  77590-3 0  9994",
        "tle_line2": "2 37686  99.0209 355.9344 0396452  68.1356 310.8807 13.35350269604882"
      },
      "geometry": {
        "type": "Point",
        "coordinates": [
          171.9640233982881,
          -32.7466044225137
        ]
      }
    },
    {
      "type": "Feature",
      "properties": {
        "norad_id": 37687,
        "name": "FENGYUN 1C DEB",
        "group": "fengyun-1c-debris",
        "lat": -33.85636290627847,
        "lon": -170.95412233709789,
        "alt_km": 1190.298277203021,
        "timestamp": "2025-12-04T10:51:50.394786+00:00",
        "meta_object_name": "FENGYUN 1C DEB",
        "meta_object_id": "1999-025ELC",
        "meta_epoch": "2025-12-03T22:15:45.053856",
        "meta_mean_motion": 13.85166406,
        "meta_eccentricity": 0.0333836,
        "meta_inclination": 98.2037,
        "meta_ra_of_asc_node": 14.139,
        "meta_arg_of_pericenter": 23.3851,
        "meta_mean_anomaly": 94.7669,
        "meta_ephemeris_type": 0,
        "meta_classification_type": "U",
        "meta_norad_cat_id": 37687,
        "meta_element_set_no": 999,
        "meta_rev_at_epoch": 83132,
        "meta_bstar": 0.0069644,
        "meta_mean_motion_dot": 0.00012183,
        "meta_mean_motion_ddot": 0,
        "tle_line1": "1 37687U 99025ELC 25337.92760479  .00012183  00000+0  69644-2 0  9995",
        "tle_line2": "2 37687  98.2037  14.1390 0333836  23.3851  94.7669 13.85166406831326"
      },
      "geometry": {
        "type": "Point",
        "coordinates": [
          -170.95412233709789,
          -33.85636290627847
        ]
      }
    },
    {
      "type": "Feature",
      "properties": {
        "norad_id": 37689,
        "name": "FENGYUN 1C DEB",
        "group": "fengyun-1c-debris",
        "lat": 23.17964978922428,
        "lon": -157.22898041408962,
        "alt_km": 734.9995086860081,
        "timestamp": "2025-12-04T10:51:50.394796+00:00",
        "meta_object_name": "FENGYUN 1C DEB",
        "meta_object_id": "1999-025ELE",
        "meta_epoch": "2025-12-02T01:46:11.045280",
        "meta_mean_motion": 14.4832477,
        "meta_eccentricity": 0.0020133,
        "meta_inclination": 98.9212,
        "meta_ra_of_asc_node": 16.4041,
        "meta_arg_of_pericenter": 272.0566,
        "meta_mean_anomaly": 87.832,
        "meta_ephemeris_type": 0,
        "meta_classification_type": "U",
        "meta_norad_cat_id": 37689,
        "meta_element_set_no": 999,
        "meta_rev_at_epoch": 57658,
        "meta_bstar": 0.002876697,
        "meta_mean_motion_dot": 0.0001075,
        "meta_mean_motion_ddot": 0,
        "tle_line1": "1 37689U 99025ELE 25336.07373895  .00010750  00000+0  28767-2 0  9993",
        "tle_line2": "2 37689  98.9212  16.4041 0020133 272.0566  87.8320 14.48324770576588"
      },
      "geometry": {
        "type": "Point",
        "coordinates": [
          -157.22898041408962,
          23.17964978922428
        ]
      }
    },
    {
      "type": "Feature",
      "properties": {
        "norad_id": 37691,
        "name": "FENGYUN 1C DEB",
        "group": "fengyun-1c-debris",
        "lat": -16.685072341166215,
        "lon": -115.394011137459,
        "alt_km": 900.75419257249,
        "timestamp": "2025-12-04T10:51:50.394807+00:00",
        "meta_object_name": "FENGYUN 1C DEB",
        "meta_object_id": "1999-025ELG",
        "meta_epoch": "2025-12-02T12:48:10.382400",
        "meta_mean_motion": 14.57224075,
        "meta_eccentricity": 0.02811336,
        "meta_inclination": 98.3724,
        "meta_ra_of_asc_node": 240.144,
        "meta_arg_of_pericenter": 181.7036,
        "meta_mean_anomaly": 178.3233,
        "meta_ephemeris_type": 0,
        "meta_classification_type": "U",
        "meta_norad_cat_id": 37691,
        "meta_element_set_no": 999,
        "meta_rev_at_epoch": 85485,
        "meta_bstar": 0.0023223094,
        "meta_mean_motion_dot": 0.00018087,
        "meta_mean_motion_ddot": 0,
        "tle_line1": "1 37691U 99025ELG 25336.53345350  .00018087  00000+0  23223-2 0  9995",
        "tle_line2": "2 37691  98.3724 240.1440 0281133 181.7036 178.3233 14.57224075854854"
      },
      "geometry": {
        "type": "Point",
        "coordinates": [
          -115.394011137459,
          -16.685072341166215
        ]
      }
    },
    {
      "type": "Feature",
      "properties": {
        "norad_id": 37693,
        "name": "FENGYUN 1C DEB",
        "group": "fengyun-1c-debris",
        "lat": 68.42076392818686,
        "lon": -44.20769452564924,
        "alt_km": 811.2496452632477,
        "timestamp": "2025-12-04T10:51:50.394817+00:00",
        "meta_object_name": "FENGYUN 1C DEB",
        "meta_object_id": "1999-025ELJ",
        "meta_epoch": "2025-12-03T18:19:20.162784",
        "meta_mean_motion": 14.08453201,
        "meta_eccentricity": 0.00726646,
        "meta_inclination": 98.6921,
        "meta_ra_of_asc_node": 337.8827,
        "meta_arg_of_pericenter": 99.7561,
        "meta_mean_anomaly": 78.0467,
        "meta_ephemeris_type": 0,
        "meta_classification_type": "U",
        "meta_norad_cat_id": 37693,
        "meta_element_set_no": 999,
        "meta_rev_at_epoch": 62022,
        "meta_bstar": 0.00073098052,
        "meta_mean_motion_dot": 1.243e-05,
        "meta_mean_motion_ddot": 0,
        "tle_line1": "1 37693U 99025ELJ 25337.76342781  .00001243  00000+0  73098-3 0  9990",
        "tle_line2": "2 37693  98.6921 337.8827 0072664  99.7561  78.0467 14.08453201620227"
      },
      "geometry": {
        "type": "Point",
        "coordinates": [
          -44.20769452564924,
          68.42076392818686
        ]
      }
    }
  ]
}